STARLINK-2017_new
1 17351C 21005C   21326.09079076 -.00009383  00000-0 -62871-3 0  3266
2 17351  53.0530 223.3253 0002238  71.9168  15.5534 15.06404865    18
STARLINK-2017_old
1 27351C 21005C   21325.16596360  .00010622  00000-0  71150-3 0  3258
2 27351  53.0533 227.4769 0002303  71.0454  38.2460 15.06395350    18
